[{"OBJECT_NAME":"NESS","OBJECT_ID":"2023-155E","EPOCH":"2026-03-09T18:20:54.923712","MEAN_MOTION":15.26794015,"ECCENTRICITY":0.00068914,"INCLINATION":97.5941,"RA_OF_ASC_NODE":152.6141,"ARG_OF_PERICENTER":179.8776,"MEAN_ANOMALY":180.2465,"EPHEMERIS_TYPE":0,"CLASSIFICATION_TYPE":"U","NORAD_CAT_ID":58020,"ELEMENT_SET_NO":999,"REV_AT_EPOCH":13330,"BSTAR":0.00074047066,"MEAN_MOTION_DOT":0.00019469,"MEAN_MOTION_DDOT":0},{"OBJECT_NAME":"STARLINK-35980","OBJECT_ID":"2025-270N","EPOCH":"2026-03-09T23:01:03.232416","MEAN_MOTION":15.2759051,"ECCENTRICITY":9.019e-5,"INCLINATION":43.0039,"RA_OF_ASC_NODE":54.951,"ARG_OF_PERICENTER":207.577,"MEAN_ANOMALY":152.5034,"EPHEMERIS_TYPE":0,"CLASSIFICATION_TYPE":"U","NORAD_CAT_ID":66600,"ELEMENT_SET_NO":999,"REV_AT_EPOCH":1764,"BSTAR":0.0009490438,"MEAN_MOTION_DOT":0.00025954,"MEAN_MOTION_DDOT":0}]
